OBJECT_NAME,OBJECT_ID,EPOCH,MEAN_MOTION,ECCENTRICITY,INCLINATION,RA_OF_ASC_NODE,ARG_OF_PERICENTER,MEAN_ANOMALY,EPHEMERIS_TYPE,CLASSIFICATION_TYPE,NORAD_CAT_ID,ELEMENT_SET_NO,REV_AT_EPOCH,BSTAR,MEAN_MOTION_DOT,MEAN_MOTION_DDOT
EYESAT A (AO-27),1993-061C,2026-07-02T04:09:35.660160,14.30946281,.00093488,98.6875,250.5810,60.9529,299.2589,0,U,22825,999,70914,.65583514E-4,.128E-5,0
ITAMSAT (IO-26),1993-061D,2026-07-02T03:33:30.493440,14.31373513,.00096614,98.6822,250.4751,45.6293,314.5680,0,U,22826,999,70945,.61279797E-4,.118E-5,0
RADIO ROSTO (RS15),1994-085A,2026-07-02T04:38:06.150336,11.27583453,.0156445,64.8179,278.9481,1.1004,359.0236,0,U,23439,999,29759,.6797761E-3,-.19E-6,0
JAS-2 (FO-29),1996-046B,2026-07-02T04:07:19.835904,13.53274938,.03507997,98.5226,29.9902,57.6602,305.7995,0,U,24278,999,47519,.5274727E-5,-.28E-6,0
FORTE,1997-047A,2026-07-02T03:43:46.124544,14.27951149,.00246003,69.9544,340.2106,259.2624,100.5729,0,U,24920,999,50082,.10266926E-3,.197E-5,0
TECHSAT 1B (GO-32),1998-043D,2026-07-02T05:41:04.991712,14.24431320,.00017581,99.0074,176.3754,135.7295,224.4024,0,U,25397,999,45347,.46029315E-4,.6E-6,0
ISS (ZARYA),1998-067A,2026-07-01T12:11:46.289760,15.49503254,.00042241,51.6311,229.1989,255.0896,104.9625,0,U,25544,999,57397,.11826728E-3,.6185E-4,0
IMAGE,2000-017A,2026-06-30T21:52:49.688544,1.68666270,.7422471,94.2398,315.5527,286.2504,9.4555,0,U,26113,999,16173,0,-.33E-6,0
CLUSTER II-FM7 (SAMBA),2000-041A,2026-07-02T18:10:50.311200,0.44834504,.90728696,149.8840,53.4423,270.8480,359.6360,0,U,26410,999,2037,0,.12787E-3,0
CLUSTER II-FM8 (TANGO),2000-045B,2026-06-30T22:42:15.480864,0.44420098,.90747877,150.1096,54.2616,271.4997,2.3331,0,U,26464,999,2037,0,.15784E-3,0
ODIN,2001-007A,2026-07-02T02:50:17.617344,15.81970381,.0005951,97.3778,225.0778,134.9782,225.1970,0,U,26702,999,39175,.13412835E-2,.279824E-2,0
OMNI-M1,2001-026A,2026-07-02T00:09:17.717184,3.92402003,.00137998,44.8270,241.8483,56.1769,304.0224,0,U,26857,999,20615,0,.7E-7,0
PCSAT (NO-44),2001-043C,2026-07-02T05:54:05.164704,14.31961081,.00060199,67.0489,205.3231,265.5533,94.4881,0,U,26931,999,29260,.69472339E-4,.103E-5,0
PROBA-1,2001-049B,2026-07-02T06:29:08.653920,15.07561927,.00566526,97.9596,192.3301,72.5346,288.2062,0,U,26958,999,34589,.10544574E-3,.159E-4,0
SAUDISAT 1C (SO-50),2002-058C,2026-07-01T23:45:58.868352,14.83077510,.00749074,64.5520,83.1849,259.7114,99.5540,0,U,27607,999,26665,.13277271E-3,.98E-5,0
CORIOLIS,2003-001A,2026-07-02T06:38:25.780992,14.19948960,.00142507,98.7127,189.9311,164.7519,195.4089,0,U,27640,999,21636,.76335144E-4,.119E-5,0
CUTE-1 (CO-55),2003-031E,2026-07-01T23:59:56.675328,14.24344824,.00104087,98.6736,191.3725,137.1021,223.0971,0,U,27844,999,19378,.15002425E-3,.303E-5,0
CUBESAT XI-IV (CO-57),2003-031J,2026-07-02T06:38:51.839232,14.23628936,.00099602,98.6769,191.3466,153.7682,206.4003,0,U,27848,999,19352,.13793794E-3,.271E-5,0
MOZHAETS 4 (RS22),2003-042A,2026-07-02T07:05:28.089600,14.73493036,.00103164,98.3466,8.0808,216.0341,247.3165,0,U,27939,999,21777,.13681662E-3,.835E-5,0
